{"type": "FeatureCollection", "features": [ {"type": "Feature", "properties": {"norad_id": 41836, "name": "HIMAWARI-9", "group": "weather", "lat": -0.0005807664019101039, "lon": 33.71839721343364, "alt_km": 35789.297603663385, "timestamp": "2025-12-10T11:33:53.034167+00:00", "meta": {"OBJECT_NAME": "HIMAWARI-9", "OBJECT_ID": "2016-064A", "EPOCH": "2025-12-09T21:15:38.716128", "MEAN_MOTION": 1.00273683, "ECCENTRICITY": 0.00013, "INCLINATION": 0.0242, "RA_OF_ASC_NODE": 77.2412, "ARG_OF_PERICENTER": 184.4827, "MEAN_ANOMALY": 276.8355, "EPHEMERIS_TYPE": 0, "CLASSIFICATION_TYPE": "U", "NORAD_CAT_ID": 41836, "ELEMENT_SET_NO": 999, "REV_AT_EPOCH": 3331, "BSTAR": 0, "MEAN_MOTION_DOT": -2.71e-06, "MEAN_MOTION_DDOT": 0}, "tle": {"line1": "1 41836U 16064A   25343.88586477 -.00000271  00000+0  00000+0 0  9998", "line2": "2 41836   0.0242  77.2412 0001300 184.4827 276.8355  1.00273683 33319"}}, "geometry": {"type": "Point", "coordinates": [33.71839721343364, -0.0005807664019101039]}}, {"type": "Feature", "properties": {"norad_id": 41866, "name": "GOES 16", "group": "weather", "lat": 0.04848404452982443, "lon": 148.21523902661406, "alt_km": 35791.84906921302, "timestamp": "2025-12-10T11:33:53.034179+00:00", "meta": {"OBJECT_NAME": "GOES 16", "OBJECT_ID": "2016-071A", "EPOCH": "2025-12-10T04:31:38.802720", "MEAN_MOTION": 1.00270933, "ECCENTRICITY": 0.0003362, "INCLINATION": 0.0644, "RA_OF_ASC_NODE": 105.0893, "ARG_OF_PERICENTER": 156.0186, "MEAN_ANOMALY": 141.2987, "EPHEMERIS_TYPE": 0, "CLASSIFICATION_TYPE": "U", "NORAD_CAT_ID": 41866, "ELEMENT_SET_NO": 999, "REV_AT_EPOCH": 3320, "BSTAR": 0, "MEAN_MOTION_DOT": -8.8e-07, "MEAN_MOTION_DDOT": 0}, "tle": {"line1": "1 41866U 16071A   25344.18864355 -.00000088  00000+0  00000+0 0  9993", "line2": "2 41866   0.0644 105.0893 0003362 156.0186 141.2987  1.00270933 33203"}}, "geometry": {"type": "Point", "coordinates": [148.21523902661406, 0.04848404452982443]}}, {"type": "Feature", "properties": {"norad_id": 41882, "name": "FENGYUN 4A", "group": "weather", "lat": -1.6687454346040043, "lon": 16.82291792988115, "alt_km": 35803.599032557926, "timestamp": "2025-12-10T11:33:53.034191+00:00", "meta": {"OBJECT_NAME": "FENGYUN 4A", "OBJECT_ID": "2016-077A", "EPOCH": "2025-12-09T21:00:35.659872", "MEAN_MOTION": 1.00275053, "ECCENTRICITY": 0.0004889, "INCLINATION": 1.8422, "RA_OF_ASC_NODE": 82.422, "ARG_OF_PERICENTER": 142.7758, "MEAN_ANOMALY": 292.6611, "EPHEMERIS_TYPE": 0, "CLASSIFICATION_TYPE": "U", "NORAD_CAT_ID": 41882, "ELEMENT_SET_NO": 999, "REV_AT_EPOCH": 3303, "BSTAR": 0, "MEAN_MOTION_DOT": -3.54e-06, "MEAN_MOTION_DDOT": 0}, "tle": {"line1": "1 41882U 16077A   25343.87541273 -.00000354  00000+0  00000+0 0  9999", "line2": "2 41882   1.8422  82.4220 0004889 142.7758 292.6611  1.00275053 33032"}}, "geometry": {"type": "Point", "coordinates": [16.82291792988115, -1.6687454346040043]}}, {"type": "Feature", "properties": {"norad_id": 41884, "name": "CYGFM05", "group": "weather", "lat": 1.0081169309400013, "lon": 63.32235118965555, "alt_km": 429.00602325201, "timestamp": "2025-12-10T11:33:53.034202+00:00", "meta": {"OBJECT_NAME": "CYGFM05", "OBJECT_ID": "2016-078A", "EPOCH": "2025-12-09T13:52:51.612096", "MEAN_MOTION": 15.47454273, "ECCENTRICITY": 0.0009703, "INCLINATION": 34.9598, "RA_OF_ASC_NODE": 67.7793, "ARG_OF_PERICENTER": 153.8808, "MEAN_ANOMALY": 206.2405, "EPHEMERIS_TYPE": 0, "CLASSIFICATION_TYPE": "U", "NORAD_CAT_ID": 41884, "ELEMENT_SET_NO": 999, "REV_AT_EPOCH": 49927, "BSTAR": 0.00049142, "MEAN_MOTION_DOT": 0.0002606, "MEAN_MOTION_DDOT": 0}, "tle": {"line1": "1 41884U 16078A   25343.57837514  .00026060  00000+0  49142-3 0  9990", "line2": "2 41884  34.9598  67.7793 0009703 153.8808 206.2405 15.47454273499278"}}, "geometry": {"type": "Point", "coordinates": [63.32235118965555, 1.0081169309400013]}}, {"type": "Feature", "properties": {"norad_id": 41885, "name": "CYGFM04", "group": "weather", "lat": -21.198789742659955, "lon": -109.52518546853108, "alt_km": 411.81175113659265, "timestamp": "2025-12-10T11:33:53.034212+00:00", "meta": {"OBJECT_NAME": "CYGFM04", "OBJECT_ID": "2016-078B", "EPOCH": "2025-12-10T04:26:31.717248", "MEAN_MOTION": 15.50188708, "ECCENTRICITY": 0.0009185, "INCLINATION": 34.9354, "RA_OF_ASC_NODE": 38.6669, "ARG_OF_PERICENTER": 187.7747, "MEAN_ANOMALY": 172.2834, "EPHEMERIS_TYPE": 0, "CLASSIFICATION_TYPE": "U", "NORAD_CAT_ID": 41885, "ELEMENT_SET_NO": 999, "REV_AT_EPOCH": 49954, "BSTAR": 0.0005073, "MEAN_MOTION_DOT": 0.00029637, "MEAN_MOTION_DDOT": 0}, "tle": {"line1": "1 41885U 16078B   25344.18508932  .00029637  00000+0  50730-3 0  9996", "line2": "2 41885  34.9354  38.6669 0009185 187.7747 172.2834 15.50188708499549"}}, "geometry": {"type": "Point", "coordinates": [-109.52518546853108, -21.198789742659955]}}, {"type": "Feature", "properties": {"norad_id": 41886, "name": "CYGFM02", "group": "weather", "lat": -22.06979799068475, "lon": -109.42811741968531, "alt_km": 407.029649324847, "timestamp": "2025-12-10T11:33:53.034223+00:00", "meta": {"OBJECT_NAME": "CYGFM02", "OBJECT_ID": "2016-078C", "EPOCH": "2025-12-10T04:26:26.152224", "MEAN_MOTION": 15.51556712, "ECCENTRICITY": 0.0010877, "INCLINATION": 34.9443, "RA_OF_ASC_NODE": 37.0265, "ARG_OF_PERICENTER": 187.2592, "MEAN_ANOMALY": 172.7975, "EPHEMERIS_TYPE": 0, "CLASSIFICATION_TYPE": "U", "NORAD_CAT_ID": 41886, "ELEMENT_SET_NO": 999, "REV_AT_EPOCH": 49967, "BSTAR": 0.00051806, "MEAN_MOTION_DOT": 0.00031816, "MEAN_MOTION_DDOT": 0}, "tle": {"line1": "1 41886U 16078C   25344.18502491  .00031816  00000+0  51806-3 0  9998", "line2": "2 41886  34.9443  37.0265 0010877 187.2592 172.7975 15.51556712499677"}}, "geometry": {"type": "Point", "coordinates": [-109.42811741968531, -22.06979799068475]}}, {"type": "Feature", "properties": {"norad_id": 41887, "name": "CYGFM01", "group": "weather", "lat": 22.158243814330564, "lon": 99.92453333263737, "alt_km": 420.3894889740468, "timestamp": "2025-12-10T11:33:53.034233+00:00", "meta": {"OBJECT_NAME": "CYGFM01", "OBJECT_ID": "2016-078D", "EPOCH": "2025-12-09T15:16:01.554240", "MEAN_MOTION": 15.48030549, "ECCENTRICITY": 0.0009257, "INCLINATION": 34.9428, "RA_OF_ASC_NODE": 69.7736, "ARG_OF_PERICENTER": 146.0748, "MEAN_ANOMALY": 214.0567, "EPHEMERIS_TYPE": 0, "CLASSIFICATION_TYPE": "U", "NORAD_CAT_ID": 41887, "ELEMENT_SET_NO": 999, "REV_AT_EPOCH": 49922, "BSTAR": 0.0005095, "MEAN_MOTION_DOT": 0.00027573, "MEAN_MOTION_DDOT": 0}, "tle": {"line1": "1 41887U 16078D   25343.63612910  .00027573  00000+0  50950-3 0  9990", "line2": "2 41887  34.9428  69.7736 0009257 146.0748 214.0567 15.48030549499221"}}, "geometry": {"type": "Point", "coordinates": [99.92453333263737, 22.158243814330564]}}, {"type": "Feature", "properties": {"norad_id": 41888, "name": "CYGFM08", "group": "weather", "lat": 34.30023508949534, "lon": 124.9128401392224, "alt_km": 413.66327728963734, "timestamp": "2025-12-10T11:33:53.034244+00:00", "meta": {"OBJECT_NAME": "CYGFM08", "OBJECT_ID": "2016-078E", "EPOCH": "2025-12-09T21:18:10.653120", "MEAN_MOTION": 15.49241615, "ECCENTRICITY": 0.0011207, "INCLINATION": 34.9465, "RA_OF_ASC_NODE": 51.154, "ARG_OF_PERICENTER": 173.135, "MEAN_ANOMALY": 186.9527, "EPHEMERIS_TYPE": 0, "CLASSIFICATION_TYPE": "U", "NORAD_CAT_ID": 41888, "ELEMENT_SET_NO": 999, "REV_AT_EPOCH": 49949, "BSTAR": 0.00051076, "MEAN_MOTION_DOT": 0.00028874, "MEAN_MOTION_DDOT": 0}, "tle": {"line1": "1 41888U 16078E   25343.88762330  .00028874  00000+0  51076-3 0  9995", "line2": "2 41888  34.9465  51.1540 0011207 173.1350 186.9527 15.49241615499490"}}, "geometry": {"type": "Point", "coordinates": [124.9128401392224, 34.30023508949534]}}, {"type": "Feature", "properties": {"norad_id": 41890, "name": "CYGFM07", "group": "weather", "lat": 30.623635226235436, "lon": 94.21185277333765, "alt_km": 415.8619089774693, "timestamp": "2025-12-10T11:33:53.034255+00:00", "meta": {"OBJECT_NAME": "CYGFM07", "OBJECT_ID": "2016-078G", "EPOCH": "2025-12-09T13:39:05.039712", "MEAN_MOTION": 15.4979977, "ECCENTRICITY": 0.0009553, "INCLINATION": 34.9481, "RA_OF_ASC_NODE": 42.2409, "ARG_OF_PERICENTER": 187.8232, "MEAN_ANOMALY": 172.2342, "EPHEMERIS_TYPE": 0, "CLASSIFICATION_TYPE": "U", "NORAD_CAT_ID": 41890, "ELEMENT_SET_NO": 999, "REV_AT_EPOCH": 49946, "BSTAR": 0.00050008, "MEAN_MOTION_DOT": 0.00028813, "MEAN_MOTION_DDOT": 0}, "tle": {"line1": "1 41890U 16078G   25343.56880833  .00028813  00000+0  50008-3 0  9999", "line2": "2 41890  34.9481  42.2409 0009553 187.8232 172.2342 15.49799770499468"}}, "geometry": {"type": "Point", "coordinates": [94.21185277333765, 30.623635226235436]}}, {"type": "Feature", "properties": {"norad_id": 41891, "name": "CYGFM03", "group": "weather", "lat": -34.1378139387731, "lon": -65.65176539901127, "alt_km": 417.95649993565894, "timestamp": "2025-12-10T11:33:53.034265+00:00", "meta": {"OBJECT_NAME": "CYGFM03", "OBJECT_ID": "2016-078H", "EPOCH": "2025-12-09T14:21:23.159808", "MEAN_MOTION": 15.49703336, "ECCENTRICITY": 0.000885, "INCLINATION": 34.9436, "RA_OF_ASC_NODE": 43.965, "ARG_OF_PERICENTER": 175.1445, "MEAN_ANOMALY": 184.9364, "EPHEMERIS_TYPE": 0, "CLASSIFICATION_TYPE": "U", "NORAD_CAT_ID": 41891, "ELEMENT_SET_NO": 999, "REV_AT_EPOCH": 49944, "BSTAR": 0.00050549, "MEAN_MOTION_DOT": 0.00029019, "MEAN_MOTION_DDOT": 0}, "tle": {"line1": "1 41891U 16078H   25343.59818472  .00029019  00000+0  50549-3 0  9992", "line2": "2 41891  34.9436  43.9650 0008850 175.1445 184.9364 15.49703336499445"}}, "geometry": {"type": "Point", "coordinates": [-65.65176539901127, -34.1378139387731]}}]}